[{"OBJECT_NAME":"LAPAN-A3","OBJECT_ID":"2016-040E","EPOCH":"2026-03-09T23:01:57.724896","MEAN_MOTION":15.3238951,"ECCENTRICITY":0.00109839,"INCLINATION":97.1488,"RA_OF_ASC_NODE":68.4254,"ARG_OF_PERICENTER":22.062,"MEAN_ANOMALY":338.1093,"EPHEMERIS_TYPE":0,"CLASSIFICATION_TYPE":"U","NORAD_CAT_ID":41603,"ELEMENT_SET_NO":999,"REV_AT_EPOCH":53961,"BSTAR":0.00017567445,"MEAN_MOTION_DOT":5.428e-5,"MEAN_MOTION_DDOT":0},{"OBJECT_NAME":"STARLINK-33806","OBJECT_ID":"2025-087AC","EPOCH":"2026-03-09T17:04:07.523616","MEAN_MOTION":15.30204646,"ECCENTRICITY":9.161e-5,"INCLINATION":53.1573,"RA_OF_ASC_NODE":219.3962,"ARG_OF_PERICENTER":67.9403,"MEAN_ANOMALY":292.1695,"EPHEMERIS_TYPE":0,"CLASSIFICATION_TYPE":"U","NORAD_CAT_ID":63723,"ELEMENT_SET_NO":999,"REV_AT_EPOCH":4920,"BSTAR":0.00096211424,"MEAN_MOTION_DOT":0.00028248,"MEAN_MOTION_DDOT":0}]
